{
"type": "FeatureCollection",
"name": "reference_points",
"crs": { "type": "name", "properties": { "name": "urn:ogc:def:crs:OGC:1.3:CRS84" } },
"features": [
{ "type": "Feature", "properties": { "zone_id": "NE_F_001", "reference_group_id": "REF_F0200AB4D0E8", "shared_reference_group_size": 15 }, "geometry": { "type": "Point", "coordinates": [ 73.795011523846114, 20.014653039351131 ] } },
{ "type": "Feature", "properties": { "zone_id": "NE_F_002", "reference_group_id": "REF_5C8511399D9E", "shared_reference_group_size": 1 }, "geometry": { "type": "Point", "coordinates": [ 73.804623346319602, 20.02538446607884 ] } },
{ "type": "Feature", "properties": { "zone_id": "NE_F_003", "reference_group_id": "REF_DC0BAA201688", "shared_reference_group_size": 3 }, "geometry": { "type": "Point", "coordinates": [ 73.749745500219902, 20.00124923647515 ] } },
{ "type": "Feature", "properties": { "zone_id": "NE_F_004", "reference_group_id": "REF_D5B4BF71ABCE", "shared_reference_group_size": 1 }, "geometry": { "type": "Point", "coordinates": [ 73.770853803268608, 20.016053634960578 ] } },
{ "type": "Feature", "properties": { "zone_id": "NE_F_005", "reference_group_id": "REF_5334887687FD", "shared_reference_group_size": 1 }, "geometry": { "type": "Point", "coordinates": [ 73.765656167840746, 20.019083118939633 ] } },
{ "type": "Feature", "properties": { "zone_id": "NE_F_007", "reference_group_id": "REF_FEA8682F6F87", "shared_reference_group_size": 1 }, "geometry": { "type": "Point", "coordinates": [ 73.800878674586741, 19.980400466141589 ] } },
{ "type": "Feature", "properties": { "zone_id": "NE_F_008", "reference_group_id": "REF_744E555C6AC2", "shared_reference_group_size": 1 }, "geometry": { "type": "Point", "coordinates": [ 73.825053571173754, 20.022021664583978 ] } },
{ "type": "Feature", "properties": { "zone_id": "NE_F_010", "reference_group_id": "REF_F0200AB4D0E8", "shared_reference_group_size": 15 }, "geometry": { "type": "Point", "coordinates": [ 73.795011523846114, 20.014653039351131 ] } },
{ "type": "Feature", "properties": { "zone_id": "NE_F_011", "reference_group_id": "REF_0003CB977A62", "shared_reference_group_size": 1 }, "geometry": { "type": "Point", "coordinates": [ 73.712870700000025, 19.9904389 ] } },
{ "type": "Feature", "properties": { "zone_id": "NE_F_012", "reference_group_id": "REF_0D6F3D532DAB", "shared_reference_group_size": 1 }, "geometry": { "type": "Point", "coordinates": [ 73.706409269494955, 20.007075022832584 ] } },
{ "type": "Feature", "properties": { "zone_id": "NE_F_014", "reference_group_id": "REF_F0200AB4D0E8", "shared_reference_group_size": 15 }, "geometry": { "type": "Point", "coordinates": [ 73.795011523846114, 20.014653039351131 ] } },
{ "type": "Feature", "properties": { "zone_id": "NE_F_015", "reference_group_id": "REF_3324364722DA", "shared_reference_group_size": 1 }, "geometry": { "type": "Point", "coordinates": [ 73.819700146135602, 19.971555134998194 ] } },
{ "type": "Feature", "properties": { "zone_id": "NE_F_016", "reference_group_id": "REF_1A9E5971E234", "shared_reference_group_size": 1 }, "geometry": { "type": "Point", "coordinates": [ 73.796790987109887, 19.998542659739378 ] } },
{ "type": "Feature", "properties": { "zone_id": "NE_R_001", "reference_group_id": "REF_DFEC571C3E39", "shared_reference_group_size": 1 }, "geometry": { "type": "Point", "coordinates": [ 73.790095082788568, 20.012172747796214 ] } },
{ "type": "Feature", "properties": { "zone_id": "NE_R_002", "reference_group_id": "REF_9E489613A244", "shared_reference_group_size": 1 }, "geometry": { "type": "Point", "coordinates": [ 73.777938897570422, 19.982870283243127 ] } },
{ "type": "Feature", "properties": { "zone_id": "NW_F_001", "reference_group_id": "REF_F0200AB4D0E8", "shared_reference_group_size": 15 }, "geometry": { "type": "Point", "coordinates": [ 73.795011523846114, 20.014653039351131 ] } },
{ "type": "Feature", "properties": { "zone_id": "NW_F_002", "reference_group_id": "REF_C7FFF4696D7D", "shared_reference_group_size": 1 }, "geometry": { "type": "Point", "coordinates": [ 73.770655910392421, 20.00299641356375 ] } },
{ "type": "Feature", "properties": { "zone_id": "NW_F_003", "reference_group_id": "REF_F10EA233677D", "shared_reference_group_size": 1 }, "geometry": { "type": "Point", "coordinates": [ 73.830481582274174, 19.969840438613019 ] } },
{ "type": "Feature", "properties": { "zone_id": "NW_F_004", "reference_group_id": "REF_D72EE4D93C39", "shared_reference_group_size": 3 }, "geometry": { "type": "Point", "coordinates": [ 73.803890284812013, 19.981746876557217 ] } },
{ "type": "Feature", "properties": { "zone_id": "NW_F_005", "reference_group_id": "REF_B07ADB63C395", "shared_reference_group_size": 1 }, "geometry": { "type": "Point", "coordinates": [ 73.7892619, 20.0088984 ] } },
{ "type": "Feature", "properties": { "zone_id": "NW_F_006", "reference_group_id": "REF_F28835B00CA4", "shared_reference_group_size": 1 }, "geometry": { "type": "Point", "coordinates": [ 73.783898941547704, 19.978774081776201 ] } },
{ "type": "Feature", "properties": { "zone_id": "NW_F_007", "reference_group_id": "REF_B8A64EA31F24", "shared_reference_group_size": 1 }, "geometry": { "type": "Point", "coordinates": [ 73.754848945291911, 19.992337170758233 ] } },
{ "type": "Feature", "properties": { "zone_id": "NW_F_008", "reference_group_id": "REF_44841DD45B85", "shared_reference_group_size": 2 }, "geometry": { "type": "Point", "coordinates": [ 73.728688849574013, 20.009974530384316 ] } },
{ "type": "Feature", "properties": { "zone_id": "NW_F_009", "reference_group_id": "REF_201B3BEA212C", "shared_reference_group_size": 1 }, "geometry": { "type": "Point", "coordinates": [ 73.762940249859923, 20.004253550014322 ] } },
{ "type": "Feature", "properties": { "zone_id": "NW_F_010", "reference_group_id": "REF_29B8C851B692", "shared_reference_group_size": 2 }, "geometry": { "type": "Point", "coordinates": [ 73.721882592856815, 19.985601882953961 ] } },
{ "type": "Feature", "properties": { "zone_id": "NW_F_011", "reference_group_id": "REF_A639AD0019B1", "shared_reference_group_size": 2 }, "geometry": { "type": "Point", "coordinates": [ 73.844049379065652, 19.992101127727977 ] } },
{ "type": "Feature", "properties": { "zone_id": "NW_F_012", "reference_group_id": "REF_29B8C851B692", "shared_reference_group_size": 2 }, "geometry": { "type": "Point", "coordinates": [ 73.721882592856815, 19.985601882953961 ] } },
{ "type": "Feature", "properties": { "zone_id": "NW_F_013", "reference_group_id": "REF_D3EC60E390FB", "shared_reference_group_size": 1 }, "geometry": { "type": "Point", "coordinates": [ 73.751964604754733, 20.008972216926473 ] } },
{ "type": "Feature", "properties": { "zone_id": "NW_F_014", "reference_group_id": "REF_4B3C2F12492A", "shared_reference_group_size": 1 }, "geometry": { "type": "Point", "coordinates": [ 73.756456300000025, 20.0054918 ] } },
{ "type": "Feature", "properties": { "zone_id": "NW_F_016", "reference_group_id": "REF_673CC18F022C", "shared_reference_group_size": 1 }, "geometry": { "type": "Point", "coordinates": [ 73.790095082788568, 20.012172747796214 ] } },
{ "type": "Feature", "properties": { "zone_id": "NW_F_017", "reference_group_id": "REF_F0200AB4D0E8", "shared_reference_group_size": 15 }, "geometry": { "type": "Point", "coordinates": [ 73.795011523846114, 20.014653039351131 ] } },
{ "type": "Feature", "properties": { "zone_id": "NW_F_018", "reference_group_id": "REF_2DF329566A85", "shared_reference_group_size": 1 }, "geometry": { "type": "Point", "coordinates": [ 73.753268195422095, 19.997110283097925 ] } },
{ "type": "Feature", "properties": { "zone_id": "NW_F_019", "reference_group_id": "REF_4E7AECCD0B49", "shared_reference_group_size": 1 }, "geometry": { "type": "Point", "coordinates": [ 73.728710517375205, 19.972706050848302 ] } },
{ "type": "Feature", "properties": { "zone_id": "NW_F_020", "reference_group_id": "REF_1F16C446F254", "shared_reference_group_size": 1 }, "geometry": { "type": "Point", "coordinates": [ 73.802846584355606, 19.99319276633495 ] } },
{ "type": "Feature", "properties": { "zone_id": "NW_F_021", "reference_group_id": "REF_F0200AB4D0E8", "shared_reference_group_size": 15 }, "geometry": { "type": "Point", "coordinates": [ 73.795011523846114, 20.014653039351131 ] } },
{ "type": "Feature", "properties": { "zone_id": "NW_F_022", "reference_group_id": "REF_A9A83D7BDA03", "shared_reference_group_size": 1 }, "geometry": { "type": "Point", "coordinates": [ 73.791684453698892, 20.001853300072575 ] } },
{ "type": "Feature", "properties": { "zone_id": "NW_F_024", "reference_group_id": "REF_D2AE3F069677", "shared_reference_group_size": 12 }, "geometry": { "type": "Point", "coordinates": [ 73.791534479381511, 19.980459299870009 ] } },
{ "type": "Feature", "properties": { "zone_id": "NW_F_025", "reference_group_id": "REF_67205697A152", "shared_reference_group_size": 1 }, "geometry": { "type": "Point", "coordinates": [ 73.792249701522763, 20.008677800016098 ] } },
{ "type": "Feature", "properties": { "zone_id": "NW_F_026", "reference_group_id": "REF_F8FA518E98F2", "shared_reference_group_size": 1 }, "geometry": { "type": "Point", "coordinates": [ 73.785593845945357, 20.014060450095979 ] } },
{ "type": "Feature", "properties": { "zone_id": "NW_F_027", "reference_group_id": "REF_1FCDB2D8A5E9", "shared_reference_group_size": 1 }, "geometry": { "type": "Point", "coordinates": [ 73.788076472077833, 20.00174936916741 ] } },
{ "type": "Feature", "properties": { "zone_id": "NW_R_001", "reference_group_id": "REF_E691569B8E98", "shared_reference_group_size": 1 }, "geometry": { "type": "Point", "coordinates": [ 73.758235931605, 20.009275403440245 ] } },
{ "type": "Feature", "properties": { "zone_id": "NW_R_002", "reference_group_id": "REF_430543E30DDC", "shared_reference_group_size": 1 }, "geometry": { "type": "Point", "coordinates": [ 73.75818744913758, 20.006748100122941 ] } },
{ "type": "Feature", "properties": { "zone_id": "NW_R_003", "reference_group_id": "REF_F02AD7552916", "shared_reference_group_size": 1 }, "geometry": { "type": "Point", "coordinates": [ 73.757507451277377, 20.007712410207475 ] } },
{ "type": "Feature", "properties": { "zone_id": "NW_R_007", "reference_group_id": "REF_DF4F9DAD0C06", "shared_reference_group_size": 1 }, "geometry": { "type": "Point", "coordinates": [ 73.762979396372018, 19.97305448318297 ] } },
{ "type": "Feature", "properties": { "zone_id": "NW_R_011", "reference_group_id": "REF_F9B24341684F", "shared_reference_group_size": 2 }, "geometry": { "type": "Point", "coordinates": [ 73.789465767802483, 20.011085848416741 ] } },
{ "type": "Feature", "properties": { "zone_id": "NW_R_015", "reference_group_id": "REF_92B90973DC23", "shared_reference_group_size": 1 }, "geometry": { "type": "Point", "coordinates": [ 73.774621977317622, 20.001228207602932 ] } },
{ "type": "Feature", "properties": { "zone_id": "NW_R_017", "reference_group_id": "REF_B864A4D94B0D", "shared_reference_group_size": 1 }, "geometry": { "type": "Point", "coordinates": [ 73.765394595225089, 19.973261010372024 ] } },
{ "type": "Feature", "properties": { "zone_id": "NW_R_018", "reference_group_id": "REF_D7FA6B0AAC2A", "shared_reference_group_size": 3 }, "geometry": { "type": "Point", "coordinates": [ 73.809912023835821, 19.982449200166101 ] } },
{ "type": "Feature", "properties": { "zone_id": "PAN_F_001", "reference_group_id": "REF_627EFA2E29F9", "shared_reference_group_size": 1 }, "geometry": { "type": "Point", "coordinates": [ 73.7658554, 19.9737165 ] } },
{ "type": "Feature", "properties": { "zone_id": "PAN_F_002", "reference_group_id": "REF_D2AE3F069677", "shared_reference_group_size": 12 }, "geometry": { "type": "Point", "coordinates": [ 73.791534479381511, 19.980459299870009 ] } },
{ "type": "Feature", "properties": { "zone_id": "PAN_F_004", "reference_group_id": "REF_F0200AB4D0E8", "shared_reference_group_size": 15 }, "geometry": { "type": "Point", "coordinates": [ 73.795011523846114, 20.014653039351131 ] } },
{ "type": "Feature", "properties": { "zone_id": "PAN_F_005", "reference_group_id": "REF_3D5884D24AF8", "shared_reference_group_size": 1 }, "geometry": { "type": "Point", "coordinates": [ 73.762334999793538, 19.990102150116694 ] } },
{ "type": "Feature", "properties": { "zone_id": "PAN_F_006", "reference_group_id": "REF_D2AE3F069677", "shared_reference_group_size": 12 }, "geometry": { "type": "Point", "coordinates": [ 73.791534479381511, 19.980459299870009 ] } },
{ "type": "Feature", "properties": { "zone_id": "PAN_F_007", "reference_group_id": "REF_7709F8503D3E", "shared_reference_group_size": 1 }, "geometry": { "type": "Point", "coordinates": [ 73.800207449377368, 20.023804150061157 ] } },
{ "type": "Feature", "properties": { "zone_id": "PAN_F_008", "reference_group_id": "REF_8191CF1C7D34", "shared_reference_group_size": 3 }, "geometry": { "type": "Point", "coordinates": [ 73.800207449377368, 20.02380415006116 ] } },
{ "type": "Feature", "properties": { "zone_id": "PAN_F_009", "reference_group_id": "REF_44841DD45B85", "shared_reference_group_size": 2 }, "geometry": { "type": "Point", "coordinates": [ 73.728688849574013, 20.009974530384316 ] } },
{ "type": "Feature", "properties": { "zone_id": "PAN_F_010", "reference_group_id": "REF_11E907074569", "shared_reference_group_size": 1 }, "geometry": { "type": "Point", "coordinates": [ 73.770922196865641, 20.005236308612243 ] } },
{ "type": "Feature", "properties": { "zone_id": "PAN_F_011", "reference_group_id": "REF_31B6A39F7F4B", "shared_reference_group_size": 1 }, "geometry": { "type": "Point", "coordinates": [ 73.755481395559201, 20.005671183096329 ] } },
{ "type": "Feature", "properties": { "zone_id": "PAN_F_012", "reference_group_id": "REF_C4EBE555F05C", "shared_reference_group_size": 2 }, "geometry": { "type": "Point", "coordinates": [ 73.797141800031625, 20.005104500004553 ] } },
{ "type": "Feature", "properties": { "zone_id": "PAN_F_013", "reference_group_id": "REF_151CA683D7DD", "shared_reference_group_size": 1 }, "geometry": { "type": "Point", "coordinates": [ 73.752948799608404, 19.995481850049448 ] } },
{ "type": "Feature", "properties": { "zone_id": "PAN_F_014", "reference_group_id": "REF_8191CF1C7D34", "shared_reference_group_size": 3 }, "geometry": { "type": "Point", "coordinates": [ 73.800207449377368, 20.02380415006116 ] } },
{ "type": "Feature", "properties": { "zone_id": "PAN_F_015", "reference_group_id": "REF_1305EAF3A4F9", "shared_reference_group_size": 2 }, "geometry": { "type": "Point", "coordinates": [ 73.768833314003246, 20.004663649556864 ] } },
{ "type": "Feature", "properties": { "zone_id": "PAN_F_016", "reference_group_id": "REF_6F6CE733CE7B", "shared_reference_group_size": 1 }, "geometry": { "type": "Point", "coordinates": [ 73.829667598056588, 19.975747616494502 ] } },
{ "type": "Feature", "properties": { "zone_id": "PAN_F_017", "reference_group_id": "REF_A639AD0019B1", "shared_reference_group_size": 2 }, "geometry": { "type": "Point", "coordinates": [ 73.844049379065652, 19.992101127727977 ] } },
{ "type": "Feature", "properties": { "zone_id": "PAN_F_018", "reference_group_id": "REF_7548E650B38E", "shared_reference_group_size": 1 }, "geometry": { "type": "Point", "coordinates": [ 73.765394595225089, 19.973261010372024 ] } },
{ "type": "Feature", "properties": { "zone_id": "PAN_F_019", "reference_group_id": "REF_F7A1822AB6E9", "shared_reference_group_size": 1 }, "geometry": { "type": "Point", "coordinates": [ 73.829667401943325, 19.975774183505465 ] } },
{ "type": "Feature", "properties": { "zone_id": "PAN_F_020", "reference_group_id": "REF_050B1232B8B3", "shared_reference_group_size": 1 }, "geometry": { "type": "Point", "coordinates": [ 73.754485103249266, 20.016848591512989 ] } },
{ "type": "Feature", "properties": { "zone_id": "PAN_F_022", "reference_group_id": "REF_D2AE3F069677", "shared_reference_group_size": 12 }, "geometry": { "type": "Point", "coordinates": [ 73.791534479381511, 19.980459299870009 ] } },
{ "type": "Feature", "properties": { "zone_id": "PAN_F_023", "reference_group_id": "REF_D2AE3F069677", "shared_reference_group_size": 12 }, "geometry": { "type": "Point", "coordinates": [ 73.791534479381511, 19.980459299870009 ] } },
{ "type": "Feature", "properties": { "zone_id": "PAN_F_024", "reference_group_id": "REF_D6D54A81A8F8", "shared_reference_group_size": 2 }, "geometry": { "type": "Point", "coordinates": [ 73.804000699846668, 20.011250950048154 ] } },
{ "type": "Feature", "properties": { "zone_id": "PAN_F_026", "reference_group_id": "REF_56CA2C947DF3", "shared_reference_group_size": 1 }, "geometry": { "type": "Point", "coordinates": [ 73.83570249332881, 19.998811223687404 ] } },
{ "type": "Feature", "properties": { "zone_id": "PAN_F_027", "reference_group_id": "REF_E9BA42C14DBE", "shared_reference_group_size": 2 }, "geometry": { "type": "Point", "coordinates": [ 73.795219325799664, 20.006949999869491 ] } },
{ "type": "Feature", "properties": { "zone_id": "PAN_F_028", "reference_group_id": "REF_DC0BAA201688", "shared_reference_group_size": 3 }, "geometry": { "type": "Point", "coordinates": [ 73.749745500219902, 20.00124923647515 ] } },
{ "type": "Feature", "properties": { "zone_id": "PAN_F_029", "reference_group_id": "REF_91C54D5210C8", "shared_reference_group_size": 2 }, "geometry": { "type": "Point", "coordinates": [ 73.768314464533148, 19.997977945930728 ] } },
{ "type": "Feature", "properties": { "zone_id": "PAN_F_030", "reference_group_id": "REF_8854AADC0F5A", "shared_reference_group_size": 1 }, "geometry": { "type": "Point", "coordinates": [ 73.768314464533148, 19.997977945930728 ] } },
{ "type": "Feature", "properties": { "zone_id": "PAN_F_031", "reference_group_id": "REF_C44668A87136", "shared_reference_group_size": 1 }, "geometry": { "type": "Point", "coordinates": [ 73.794812218577007, 20.00988106694577 ] } },
{ "type": "Feature", "properties": { "zone_id": "PAN_F_032", "reference_group_id": "REF_F7FF12FC21D8", "shared_reference_group_size": 1 }, "geometry": { "type": "Point", "coordinates": [ 73.777461297531772, 19.982621883241126 ] } },
{ "type": "Feature", "properties": { "zone_id": "PAN_F_033", "reference_group_id": "REF_F5F84DED44A0", "shared_reference_group_size": 1 }, "geometry": { "type": "Point", "coordinates": [ 73.784466595686268, 19.987259352888902 ] } },
{ "type": "Feature", "properties": { "zone_id": "PAN_F_034", "reference_group_id": "REF_D66BFFE62F2E", "shared_reference_group_size": 1 }, "geometry": { "type": "Point", "coordinates": [ 73.785398629678198, 19.981814149869503 ] } },
{ "type": "Feature", "properties": { "zone_id": "PAN_F_035", "reference_group_id": "REF_D6D54A81A8F8", "shared_reference_group_size": 2 }, "geometry": { "type": "Point", "coordinates": [ 73.804000699846668, 20.011250950048154 ] } },
{ "type": "Feature", "properties": { "zone_id": "PAN_F_036", "reference_group_id": "REF_107CB3EFDB8F", "shared_reference_group_size": 1 }, "geometry": { "type": "Point", "coordinates": [ 73.804000699846668, 20.011250950048154 ] } },
{ "type": "Feature", "properties": { "zone_id": "PAN_F_038", "reference_group_id": "REF_E49C111DFACF", "shared_reference_group_size": 1 }, "geometry": { "type": "Point", "coordinates": [ 73.741172487634202, 20.00294008035381 ] } },
{ "type": "Feature", "properties": { "zone_id": "PAN_R_001", "reference_group_id": "REF_5C334FD26A0D", "shared_reference_group_size": 1 }, "geometry": { "type": "Point", "coordinates": [ 73.798918449996464, 20.040465500001307 ] } },
{ "type": "Feature", "properties": { "zone_id": "PAN_R_002", "reference_group_id": "REF_FE4597CD5773", "shared_reference_group_size": 1 }, "geometry": { "type": "Point", "coordinates": [ 73.798918449996464, 20.040465500001307 ] } },
{ "type": "Feature", "properties": { "zone_id": "PAN_R_003", "reference_group_id": "REF_54D81CB36AD3", "shared_reference_group_size": 1 }, "geometry": { "type": "Point", "coordinates": [ 73.786870982259103, 20.010740283029747 ] } },
{ "type": "Feature", "properties": { "zone_id": "PAN_R_004", "reference_group_id": "REF_A2ED01847530", "shared_reference_group_size": 1 }, "geometry": { "type": "Point", "coordinates": [ 73.782630089462813, 19.989570977049237 ] } },
{ "type": "Feature", "properties": { "zone_id": "PAN_R_005", "reference_group_id": "REF_929FB0F839A7", "shared_reference_group_size": 1 }, "geometry": { "type": "Point", "coordinates": [ 73.943127409656057, 19.985767475900946 ] } },
{ "type": "Feature", "properties": { "zone_id": "PAN_R_006", "reference_group_id": "REF_5ECFB468E7C0", "shared_reference_group_size": 1 }, "geometry": { "type": "Point", "coordinates": [ 73.793571598749637, 20.006697983284678 ] } },
{ "type": "Feature", "properties": { "zone_id": "PAN_R_007", "reference_group_id": "REF_0820BDF4596C", "shared_reference_group_size": 1 }, "geometry": { "type": "Point", "coordinates": [ 73.837060900000182, 20.014409400001863 ] } },
{ "type": "Feature", "properties": { "zone_id": "PAN_R_008", "reference_group_id": "REF_47EF462D66B8", "shared_reference_group_size": 1 }, "geometry": { "type": "Point", "coordinates": [ 73.8037255, 20.0043475 ] } },
{ "type": "Feature", "properties": { "zone_id": "PAN_R_009", "reference_group_id": "REF_D2AE3F069677", "shared_reference_group_size": 12 }, "geometry": { "type": "Point", "coordinates": [ 73.791534479381511, 19.980459299870009 ] } },
{ "type": "Feature", "properties": { "zone_id": "PAN_R_010", "reference_group_id": "REF_D2AE3F069677", "shared_reference_group_size": 12 }, "geometry": { "type": "Point", "coordinates": [ 73.791534479381511, 19.980459299870009 ] } },
{ "type": "Feature", "properties": { "zone_id": "PAN_R_011", "reference_group_id": "REF_9B0A3F8E5999", "shared_reference_group_size": 1 }, "geometry": { "type": "Point", "coordinates": [ 73.7935829498267, 20.005055550218103 ] } },
{ "type": "Feature", "properties": { "zone_id": "PAN_R_012", "reference_group_id": "REF_F9B24341684F", "shared_reference_group_size": 2 }, "geometry": { "type": "Point", "coordinates": [ 73.789465767802483, 20.011085848416741 ] } },
{ "type": "Feature", "properties": { "zone_id": "NR_F_002", "reference_group_id": "REF_7C566FD4B393", "shared_reference_group_size": 1 }, "geometry": { "type": "Point", "coordinates": [ 73.844928099772162, 20.032271528142729 ] } },
{ "type": "Feature", "properties": { "zone_id": "NR_F_003", "reference_group_id": "REF_97150F18A0E6", "shared_reference_group_size": 1 }, "geometry": { "type": "Point", "coordinates": [ 73.706409269494955, 20.007075022832584 ] } },
{ "type": "Feature", "properties": { "zone_id": "NR_F_005", "reference_group_id": "REF_47996F4517EB", "shared_reference_group_size": 3 }, "geometry": { "type": "Point", "coordinates": [ 73.83048158227416, 19.969840438613019 ] } },
{ "type": "Feature", "properties": { "zone_id": "NR_F_006", "reference_group_id": "REF_47996F4517EB", "shared_reference_group_size": 3 }, "geometry": { "type": "Point", "coordinates": [ 73.83048158227416, 19.969840438613019 ] } },
{ "type": "Feature", "properties": { "zone_id": "NR_F_007", "reference_group_id": "REF_47996F4517EB", "shared_reference_group_size": 3 }, "geometry": { "type": "Point", "coordinates": [ 73.83048158227416, 19.969840438613019 ] } },
{ "type": "Feature", "properties": { "zone_id": "NR_F_008", "reference_group_id": "REF_FACD98773FDA", "shared_reference_group_size": 1 }, "geometry": { "type": "Point", "coordinates": [ 73.712246448580828, 20.008488874681145 ] } },
{ "type": "Feature", "properties": { "zone_id": "NR_F_009", "reference_group_id": "REF_B7E98F81DEB0", "shared_reference_group_size": 1 }, "geometry": { "type": "Point", "coordinates": [ 73.830481582274174, 19.969840438613019 ] } },
{ "type": "Feature", "properties": { "zone_id": "NR_F_010", "reference_group_id": "REF_0CEF7A755250", "shared_reference_group_size": 2 }, "geometry": { "type": "Point", "coordinates": [ 73.757651604139525, 19.984581116861154 ] } },
{ "type": "Feature", "properties": { "zone_id": "NR_F_011", "reference_group_id": "REF_125E35ABF029", "shared_reference_group_size": 2 }, "geometry": { "type": "Point", "coordinates": [ 73.728710517375205, 19.972706050848302 ] } },
{ "type": "Feature", "properties": { "zone_id": "NR_F_013", "reference_group_id": "REF_DD8ACB0559B6", "shared_reference_group_size": 1 }, "geometry": { "type": "Point", "coordinates": [ 73.824298550260622, 19.956304300040937 ] } },
{ "type": "Feature", "properties": { "zone_id": "NR_F_014", "reference_group_id": "REF_D2AE3F069677", "shared_reference_group_size": 12 }, "geometry": { "type": "Point", "coordinates": [ 73.791534479381511, 19.980459299870009 ] } },
{ "type": "Feature", "properties": { "zone_id": "NR_F_015", "reference_group_id": "REF_FA79A0DC4961", "shared_reference_group_size": 1 }, "geometry": { "type": "Point", "coordinates": [ 73.824298550260622, 19.956304300040937 ] } },
{ "type": "Feature", "properties": { "zone_id": "NR_F_016", "reference_group_id": "REF_0CEF7A755250", "shared_reference_group_size": 2 }, "geometry": { "type": "Point", "coordinates": [ 73.757651604139525, 19.984581116861154 ] } },
{ "type": "Feature", "properties": { "zone_id": "NR_F_017", "reference_group_id": "REF_8D1B0E3135F8", "shared_reference_group_size": 1 }, "geometry": { "type": "Point", "coordinates": [ 73.855343394374259, 19.938890060752563 ] } },
{ "type": "Feature", "properties": { "zone_id": "NR_F_018", "reference_group_id": "REF_B640320A1183", "shared_reference_group_size": 1 }, "geometry": { "type": "Point", "coordinates": [ 73.768314464533148, 19.997977945930728 ] } },
{ "type": "Feature", "properties": { "zone_id": "NR_F_019", "reference_group_id": "REF_E519B8E02EE6", "shared_reference_group_size": 1 }, "geometry": { "type": "Point", "coordinates": [ 73.765394595225089, 19.973261010372024 ] } },
{ "type": "Feature", "properties": { "zone_id": "NR_F_020", "reference_group_id": "REF_1876FC295D32", "shared_reference_group_size": 1 }, "geometry": { "type": "Point", "coordinates": [ 73.784466595686268, 19.987259352888902 ] } },
{ "type": "Feature", "properties": { "zone_id": "NR_F_021", "reference_group_id": "REF_434BF8E4C150", "shared_reference_group_size": 1 }, "geometry": { "type": "Point", "coordinates": [ 73.84878854966783, 19.950626200411875 ] } },
{ "type": "Feature", "properties": { "zone_id": "NR_F_022", "reference_group_id": "REF_E9FF79BA1EBE", "shared_reference_group_size": 1 }, "geometry": { "type": "Point", "coordinates": [ 73.836817113709969, 20.023637601448417 ] } },
{ "type": "Feature", "properties": { "zone_id": "NR_F_023", "reference_group_id": "REF_A730FAD9DDDA", "shared_reference_group_size": 1 }, "geometry": { "type": "Point", "coordinates": [ 73.76178010000001, 20.006122 ] } },
{ "type": "Feature", "properties": { "zone_id": "NR_F_024", "reference_group_id": "REF_A0C1B9E508BA", "shared_reference_group_size": 1 }, "geometry": { "type": "Point", "coordinates": [ 73.769312296786495, 19.993755683183796 ] } },
{ "type": "Feature", "properties": { "zone_id": "NR_F_025", "reference_group_id": "REF_117E638D57E2", "shared_reference_group_size": 3 }, "geometry": { "type": "Point", "coordinates": [ 73.812375099285561, 19.935094216516696 ] } },
{ "type": "Feature", "properties": { "zone_id": "NR_F_026", "reference_group_id": "REF_117E638D57E2", "shared_reference_group_size": 3 }, "geometry": { "type": "Point", "coordinates": [ 73.812375099285561, 19.935094216516696 ] } },
{ "type": "Feature", "properties": { "zone_id": "NR_F_027", "reference_group_id": "REF_117E638D57E2", "shared_reference_group_size": 3 }, "geometry": { "type": "Point", "coordinates": [ 73.812375099285561, 19.935094216516696 ] } },
{ "type": "Feature", "properties": { "zone_id": "NR_F_028", "reference_group_id": "REF_BCF0D2AA09C2", "shared_reference_group_size": 1 }, "geometry": { "type": "Point", "coordinates": [ 73.765394595225089, 19.973261010372024 ] } },
{ "type": "Feature", "properties": { "zone_id": "NR_F_029", "reference_group_id": "REF_91C54D5210C8", "shared_reference_group_size": 2 }, "geometry": { "type": "Point", "coordinates": [ 73.768314464533148, 19.997977945930728 ] } },
{ "type": "Feature", "properties": { "zone_id": "NR_F_032", "reference_group_id": "REF_E7B9CD305EEC", "shared_reference_group_size": 1 }, "geometry": { "type": "Point", "coordinates": [ 73.747917032047084, 20.01191090951945 ] } },
{ "type": "Feature", "properties": { "zone_id": "NR_F_033", "reference_group_id": "REF_5C7BB9A2627B", "shared_reference_group_size": 1 }, "geometry": { "type": "Point", "coordinates": [ 73.755987001733686, 19.976036412693649 ] } },
{ "type": "Feature", "properties": { "zone_id": "NR_F_034", "reference_group_id": "REF_A1FC2DC75B2A", "shared_reference_group_size": 1 }, "geometry": { "type": "Point", "coordinates": [ 73.841631789664945, 19.9513092209747 ] } },
{ "type": "Feature", "properties": { "zone_id": "NR_F_035", "reference_group_id": "REF_42068A98C68B", "shared_reference_group_size": 8 }, "geometry": { "type": "Point", "coordinates": [ 73.855343394374259, 19.938890060752563 ] } },
{ "type": "Feature", "properties": { "zone_id": "NR_F_036", "reference_group_id": "REF_42068A98C68B", "shared_reference_group_size": 8 }, "geometry": { "type": "Point", "coordinates": [ 73.855343394374259, 19.938890060752563 ] } },
{ "type": "Feature", "properties": { "zone_id": "NR_F_037", "reference_group_id": "REF_42068A98C68B", "shared_reference_group_size": 8 }, "geometry": { "type": "Point", "coordinates": [ 73.855343394374259, 19.938890060752563 ] } },
{ "type": "Feature", "properties": { "zone_id": "NR_F_038", "reference_group_id": "REF_42068A98C68B", "shared_reference_group_size": 8 }, "geometry": { "type": "Point", "coordinates": [ 73.855343394374259, 19.938890060752563 ] } },
{ "type": "Feature", "properties": { "zone_id": "NR_F_039", "reference_group_id": "REF_42068A98C68B", "shared_reference_group_size": 8 }, "geometry": { "type": "Point", "coordinates": [ 73.855343394374259, 19.938890060752563 ] } },
{ "type": "Feature", "properties": { "zone_id": "NR_F_040", "reference_group_id": "REF_065A452DC13C", "shared_reference_group_size": 1 }, "geometry": { "type": "Point", "coordinates": [ 73.838985014909369, 19.953065282629371 ] } },
{ "type": "Feature", "properties": { "zone_id": "NR_F_041", "reference_group_id": "REF_42068A98C68B", "shared_reference_group_size": 8 }, "geometry": { "type": "Point", "coordinates": [ 73.855343394374259, 19.938890060752563 ] } },
{ "type": "Feature", "properties": { "zone_id": "NR_F_042", "reference_group_id": "REF_42068A98C68B", "shared_reference_group_size": 8 }, "geometry": { "type": "Point", "coordinates": [ 73.855343394374259, 19.938890060752563 ] } },
{ "type": "Feature", "properties": { "zone_id": "NR_F_043", "reference_group_id": "REF_42068A98C68B", "shared_reference_group_size": 8 }, "geometry": { "type": "Point", "coordinates": [ 73.855343394374259, 19.938890060752563 ] } },
{ "type": "Feature", "properties": { "zone_id": "NR_R_001", "reference_group_id": "REF_2579DE9F6533", "shared_reference_group_size": 1 }, "geometry": { "type": "Point", "coordinates": [ 73.837287768530942, 19.950703955067699 ] } },
{ "type": "Feature", "properties": { "zone_id": "NR_R_002", "reference_group_id": "REF_D72EE4D93C39", "shared_reference_group_size": 3 }, "geometry": { "type": "Point", "coordinates": [ 73.803890284812013, 19.981746876557217 ] } },
{ "type": "Feature", "properties": { "zone_id": "NR_R_003", "reference_group_id": "REF_D2AE3F069677", "shared_reference_group_size": 12 }, "geometry": { "type": "Point", "coordinates": [ 73.791534479381511, 19.980459299870009 ] } },
{ "type": "Feature", "properties": { "zone_id": "NR_R_004", "reference_group_id": "REF_DC0BAA201688", "shared_reference_group_size": 3 }, "geometry": { "type": "Point", "coordinates": [ 73.749745500219902, 20.00124923647515 ] } },
{ "type": "Feature", "properties": { "zone_id": "NR_R_006", "reference_group_id": "REF_12934A27A2A4", "shared_reference_group_size": 1 }, "geometry": { "type": "Point", "coordinates": [ 73.777798897558711, 19.982866583242437 ] } },
{ "type": "Feature", "properties": { "zone_id": "NR_R_007", "reference_group_id": "REF_D456793F52AD", "shared_reference_group_size": 1 }, "geometry": { "type": "Point", "coordinates": [ 73.7441099, 19.9682537 ] } },
{ "type": "Feature", "properties": { "zone_id": "NR_R_008", "reference_group_id": "REF_D2AE3F069677", "shared_reference_group_size": 12 }, "geometry": { "type": "Point", "coordinates": [ 73.791534479381511, 19.980459299870009 ] } },
{ "type": "Feature", "properties": { "zone_id": "NN_F_001", "reference_group_id": "REF_2DCCAA126559", "shared_reference_group_size": 6 }, "geometry": { "type": "Point", "coordinates": [ 73.743146194842609, 19.950007883116818 ] } },
{ "type": "Feature", "properties": { "zone_id": "NN_F_002", "reference_group_id": "REF_F0200AB4D0E8", "shared_reference_group_size": 15 }, "geometry": { "type": "Point", "coordinates": [ 73.795011523846114, 20.014653039351131 ] } },
{ "type": "Feature", "properties": { "zone_id": "NN_F_003", "reference_group_id": "REF_660FE932D43A", "shared_reference_group_size": 1 }, "geometry": { "type": "Point", "coordinates": [ 73.792812427142721, 20.008276249844979 ] } },
{ "type": "Feature", "properties": { "zone_id": "NN_F_004", "reference_group_id": "REF_DE3FB4B191F4", "shared_reference_group_size": 1 }, "geometry": { "type": "Point", "coordinates": [ 73.836817113709969, 20.023637601448417 ] } },
{ "type": "Feature", "properties": { "zone_id": "NN_F_005", "reference_group_id": "REF_CFDB0E79B1D9", "shared_reference_group_size": 1 }, "geometry": { "type": "Point", "coordinates": [ 73.750826250753633, 19.943408771594758 ] } },
{ "type": "Feature", "properties": { "zone_id": "NN_F_006", "reference_group_id": "REF_2DCCAA126559", "shared_reference_group_size": 6 }, "geometry": { "type": "Point", "coordinates": [ 73.743146194842609, 19.950007883116818 ] } },
{ "type": "Feature", "properties": { "zone_id": "NN_F_007", "reference_group_id": "REF_2DCCAA126559", "shared_reference_group_size": 6 }, "geometry": { "type": "Point", "coordinates": [ 73.743146194842609, 19.950007883116818 ] } },
{ "type": "Feature", "properties": { "zone_id": "NN_F_008", "reference_group_id": "REF_2DCCAA126559", "shared_reference_group_size": 6 }, "geometry": { "type": "Point", "coordinates": [ 73.743146194842609, 19.950007883116818 ] } },
{ "type": "Feature", "properties": { "zone_id": "NN_F_009", "reference_group_id": "REF_2DCCAA126559", "shared_reference_group_size": 6 }, "geometry": { "type": "Point", "coordinates": [ 73.743146194842609, 19.950007883116818 ] } },
{ "type": "Feature", "properties": { "zone_id": "NN_F_011", "reference_group_id": "REF_990E62776234", "shared_reference_group_size": 1 }, "geometry": { "type": "Point", "coordinates": [ 73.789403953817882, 20.018449113043278 ] } },
{ "type": "Feature", "properties": { "zone_id": "NN_F_012", "reference_group_id": "REF_2DCCAA126559", "shared_reference_group_size": 6 }, "geometry": { "type": "Point", "coordinates": [ 73.743146194842609, 19.950007883116818 ] } },
{ "type": "Feature", "properties": { "zone_id": "NN_F_013", "reference_group_id": "REF_F750E7717A67", "shared_reference_group_size": 3 }, "geometry": { "type": "Point", "coordinates": [ 73.773236197231455, 19.972996583234469 ] } },
{ "type": "Feature", "properties": { "zone_id": "NN_R_001", "reference_group_id": "REF_B044340AF8D2", "shared_reference_group_size": 1 }, "geometry": { "type": "Point", "coordinates": [ 73.758987487716581, 19.957374056937919 ] } },
{ "type": "Feature", "properties": { "zone_id": "NN_R_002", "reference_group_id": "REF_8B3CCFA89E80", "shared_reference_group_size": 1 }, "geometry": { "type": "Point", "coordinates": [ 73.801938046202025, 19.94256883858441 ] } },
{ "type": "Feature", "properties": { "zone_id": "NN_R_003", "reference_group_id": "REF_A2720144355E", "shared_reference_group_size": 1 }, "geometry": { "type": "Point", "coordinates": [ 73.758987487716581, 19.957374056937919 ] } },
{ "type": "Feature", "properties": { "zone_id": "NN_R_004", "reference_group_id": "REF_A8D6CDB1CADD", "shared_reference_group_size": 1 }, "geometry": { "type": "Point", "coordinates": [ 73.750898988965929, 19.950202055559089 ] } },
{ "type": "Feature", "properties": { "zone_id": "NN_R_005", "reference_group_id": "REF_F0200AB4D0E8", "shared_reference_group_size": 15 }, "geometry": { "type": "Point", "coordinates": [ 73.795011523846114, 20.014653039351131 ] } },
{ "type": "Feature", "properties": { "zone_id": "NN_R_006", "reference_group_id": "REF_BA63A7DF63CB", "shared_reference_group_size": 2 }, "geometry": { "type": "Point", "coordinates": [ 73.7687975, 19.9680698 ] } },
{ "type": "Feature", "properties": { "zone_id": "NN_R_007", "reference_group_id": "REF_CF8A4EB4E498", "shared_reference_group_size": 1 }, "geometry": { "type": "Point", "coordinates": [ 73.760427475823292, 19.976873464515755 ] } },
{ "type": "Feature", "properties": { "zone_id": "NN_R_008", "reference_group_id": "REF_9CC599B098CF", "shared_reference_group_size": 1 }, "geometry": { "type": "Point", "coordinates": [ 73.765656167840731, 20.019083118939633 ] } },
{ "type": "Feature", "properties": { "zone_id": "NN_R_009", "reference_group_id": "REF_D2AE3F069677", "shared_reference_group_size": 12 }, "geometry": { "type": "Point", "coordinates": [ 73.791534479381511, 19.980459299870009 ] } },
{ "type": "Feature", "properties": { "zone_id": "NN_R_012", "reference_group_id": "REF_AAF072C44357", "shared_reference_group_size": 1 }, "geometry": { "type": "Point", "coordinates": [ 73.825278874798741, 19.968491033908354 ] } },
{ "type": "Feature", "properties": { "zone_id": "NN_R_013", "reference_group_id": "REF_C4EBE555F05C", "shared_reference_group_size": 2 }, "geometry": { "type": "Point", "coordinates": [ 73.797141800031625, 20.005104500004553 ] } },
{ "type": "Feature", "properties": { "zone_id": "NN_R_014", "reference_group_id": "REF_D72EE4D93C39", "shared_reference_group_size": 3 }, "geometry": { "type": "Point", "coordinates": [ 73.803890284812013, 19.981746876557217 ] } },
{ "type": "Feature", "properties": { "zone_id": "NN_R_015", "reference_group_id": "REF_C2315A7471A8", "shared_reference_group_size": 1 }, "geometry": { "type": "Point", "coordinates": [ 73.71699051048536, 19.991376450480164 ] } },
{ "type": "Feature", "properties": { "zone_id": "SAT_F_001", "reference_group_id": "REF_125E35ABF029", "shared_reference_group_size": 2 }, "geometry": { "type": "Point", "coordinates": [ 73.728710517375205, 19.972706050848302 ] } },
{ "type": "Feature", "properties": { "zone_id": "SAT_F_002", "reference_group_id": "REF_6773002C9CB1", "shared_reference_group_size": 1 }, "geometry": { "type": "Point", "coordinates": [ 73.840827599998548, 20.014885700007632 ] } },
{ "type": "Feature", "properties": { "zone_id": "SAT_F_003", "reference_group_id": "REF_A998269DC26A", "shared_reference_group_size": 1 }, "geometry": { "type": "Point", "coordinates": [ 73.840430078014563, 20.016186610093008 ] } },
{ "type": "Feature", "properties": { "zone_id": "SAT_F_004", "reference_group_id": "REF_F0200AB4D0E8", "shared_reference_group_size": 15 }, "geometry": { "type": "Point", "coordinates": [ 73.795011523846114, 20.014653039351131 ] } },
{ "type": "Feature", "properties": { "zone_id": "SAT_F_005", "reference_group_id": "REF_C3E4EA29F045", "shared_reference_group_size": 1 }, "geometry": { "type": "Point", "coordinates": [ 73.731789693660787, 19.990169982998438 ] } },
{ "type": "Feature", "properties": { "zone_id": "SAT_F_006", "reference_group_id": "REF_771979E48478", "shared_reference_group_size": 1 }, "geometry": { "type": "Point", "coordinates": [ 73.796802266294193, 20.011606767308461 ] } },
{ "type": "Feature", "properties": { "zone_id": "SAT_F_007", "reference_group_id": "REF_5EFCF76E3D77", "shared_reference_group_size": 1 }, "geometry": { "type": "Point", "coordinates": [ 73.726041454348504, 19.965431625874984 ] } },
{ "type": "Feature", "properties": { "zone_id": "SAT_F_008", "reference_group_id": "REF_AEB2128F4B2C", "shared_reference_group_size": 1 }, "geometry": { "type": "Point", "coordinates": [ 73.720881096223891, 19.984643203583296 ] } },
{ "type": "Feature", "properties": { "zone_id": "SAT_F_009", "reference_group_id": "REF_F0200AB4D0E8", "shared_reference_group_size": 15 }, "geometry": { "type": "Point", "coordinates": [ 73.795011523846114, 20.014653039351131 ] } },
{ "type": "Feature", "properties": { "zone_id": "SAT_F_010", "reference_group_id": "REF_C5840C0433B1", "shared_reference_group_size": 2 }, "geometry": { "type": "Point", "coordinates": [ 73.720657392719758, 19.991497282938763 ] } },
{ "type": "Feature", "properties": { "zone_id": "SAT_F_011", "reference_group_id": "REF_F0200AB4D0E8", "shared_reference_group_size": 15 }, "geometry": { "type": "Point", "coordinates": [ 73.795011523846114, 20.014653039351131 ] } },
{ "type": "Feature", "properties": { "zone_id": "SAT_F_012", "reference_group_id": "REF_57669307F36B", "shared_reference_group_size": 1 }, "geometry": { "type": "Point", "coordinates": [ 73.729607150160561, 19.969667299757031 ] } },
{ "type": "Feature", "properties": { "zone_id": "SAT_F_013", "reference_group_id": "REF_F0200AB4D0E8", "shared_reference_group_size": 15 }, "geometry": { "type": "Point", "coordinates": [ 73.795011523846114, 20.014653039351131 ] } },
{ "type": "Feature", "properties": { "zone_id": "SAT_F_014", "reference_group_id": "REF_F0200AB4D0E8", "shared_reference_group_size": 15 }, "geometry": { "type": "Point", "coordinates": [ 73.795011523846114, 20.014653039351131 ] } },
{ "type": "Feature", "properties": { "zone_id": "SAT_F_015", "reference_group_id": "REF_701255A7442D", "shared_reference_group_size": 1 }, "geometry": { "type": "Point", "coordinates": [ 73.723402892730732, 20.029212282896541 ] } },
{ "type": "Feature", "properties": { "zone_id": "SAT_F_016", "reference_group_id": "REF_E97E2D36AEC0", "shared_reference_group_size": 1 }, "geometry": { "type": "Point", "coordinates": [ 73.744168025131387, 20.00968580468918 ] } },
{ "type": "Feature", "properties": { "zone_id": "SAT_F_017", "reference_group_id": "REF_8D5D4204E42D", "shared_reference_group_size": 1 }, "geometry": { "type": "Point", "coordinates": [ 73.755100673612361, 20.007275172963116 ] } },
{ "type": "Feature", "properties": { "zone_id": "SAT_F_019", "reference_group_id": "REF_CFE422F00E75", "shared_reference_group_size": 1 }, "geometry": { "type": "Point", "coordinates": [ 73.836091102603291, 19.952775283570361 ] } },
{ "type": "Feature", "properties": { "zone_id": "SAT_F_020", "reference_group_id": "REF_68F9FF59EC22", "shared_reference_group_size": 2 }, "geometry": { "type": "Point", "coordinates": [ 73.775892902736601, 20.007175416803456 ] } },
{ "type": "Feature", "properties": { "zone_id": "SAT_F_021", "reference_group_id": "REF_B12E9A1532D2", "shared_reference_group_size": 1 }, "geometry": { "type": "Point", "coordinates": [ 73.731789693660787, 19.990169982998438 ] } },
{ "type": "Feature", "properties": { "zone_id": "SAT_F_022", "reference_group_id": "REF_8DA1FF1A9CEF", "shared_reference_group_size": 1 }, "geometry": { "type": "Point", "coordinates": [ 73.726041454348504, 19.965431625874984 ] } },
{ "type": "Feature", "properties": { "zone_id": "SAT_F_023", "reference_group_id": "REF_68F9FF59EC22", "shared_reference_group_size": 2 }, "geometry": { "type": "Point", "coordinates": [ 73.775892902736601, 20.007175416803456 ] } },
{ "type": "Feature", "properties": { "zone_id": "SAT_F_024", "reference_group_id": "REF_166B0E0FB67B", "shared_reference_group_size": 1 }, "geometry": { "type": "Point", "coordinates": [ 73.836081902600199, 19.953215283569648 ] } },
{ "type": "Feature", "properties": { "zone_id": "SAT_F_025", "reference_group_id": "REF_DC04CD9A439B", "shared_reference_group_size": 1 }, "geometry": { "type": "Point", "coordinates": [ 73.7588149412109, 19.958385709786256 ] } },
{ "type": "Feature", "properties": { "zone_id": "SAT_R_001", "reference_group_id": "REF_FE5AF4495116", "shared_reference_group_size": 1 }, "geometry": { "type": "Point", "coordinates": [ 73.73765299409294, 20.00050548301315 ] } },
{ "type": "Feature", "properties": { "zone_id": "SAT_R_002", "reference_group_id": "REF_713BD99A6011", "shared_reference_group_size": 1 }, "geometry": { "type": "Point", "coordinates": [ 73.719125045632296, 19.986783425885747 ] } },
{ "type": "Feature", "properties": { "zone_id": "NV_002", "reference_group_id": "REF_84E9ABB20D80", "shared_reference_group_size": 2 }, "geometry": { "type": "Point", "coordinates": [ 73.797078400000018, 19.9941144 ] } },
{ "type": "Feature", "properties": { "zone_id": "NV_003", "reference_group_id": "REF_A2AD434AAA9B", "shared_reference_group_size": 1 }, "geometry": { "type": "Point", "coordinates": [ 73.797316876531895, 19.994079815815237 ] } },
{ "type": "Feature", "properties": { "zone_id": "NV_004", "reference_group_id": "REF_84E9ABB20D80", "shared_reference_group_size": 2 }, "geometry": { "type": "Point", "coordinates": [ 73.797078400000018, 19.9941144 ] } },
{ "type": "Feature", "properties": { "zone_id": "NV_006", "reference_group_id": "REF_6D91C96F6987", "shared_reference_group_size": 1 }, "geometry": { "type": "Point", "coordinates": [ 73.796054191956785, 20.033144039637133 ] } },
{ "type": "Feature", "properties": { "zone_id": "NV_008", "reference_group_id": "REF_D2708FA6DAC4", "shared_reference_group_size": 2 }, "geometry": { "type": "Point", "coordinates": [ 73.78489590197934, 20.006857116758319 ] } },
{ "type": "Feature", "properties": { "zone_id": "NV_009", "reference_group_id": "REF_EAED496D0988", "shared_reference_group_size": 2 }, "geometry": { "type": "Point", "coordinates": [ 73.783986498053864, 19.987092683266802 ] } },
{ "type": "Feature", "properties": { "zone_id": "NV_010", "reference_group_id": "REF_1305EAF3A4F9", "shared_reference_group_size": 2 }, "geometry": { "type": "Point", "coordinates": [ 73.768833314003246, 20.004663649556864 ] } },
{ "type": "Feature", "properties": { "zone_id": "NV_012", "reference_group_id": "REF_083E21BBB056", "shared_reference_group_size": 1 }, "geometry": { "type": "Point", "coordinates": [ 73.769684896768638, 20.002520883172544 ] } },
{ "type": "Feature", "properties": { "zone_id": "NV_013", "reference_group_id": "REF_8231C7A40A7E", "shared_reference_group_size": 1 }, "geometry": { "type": "Point", "coordinates": [ 73.790525498488506, 20.007703383268204 ] } },
{ "type": "Feature", "properties": { "zone_id": "NV_014", "reference_group_id": "REF_07405A21A56A", "shared_reference_group_size": 2 }, "geometry": { "type": "Point", "coordinates": [ 73.757947746841396, 19.952641670795003 ] } },
{ "type": "Feature", "properties": { "zone_id": "NV_015", "reference_group_id": "REF_DC351865F18D", "shared_reference_group_size": 3 }, "geometry": { "type": "Point", "coordinates": [ 73.776295154671317, 19.993022294474979 ] } },
{ "type": "Feature", "properties": { "zone_id": "NV_016", "reference_group_id": "REF_DC351865F18D", "shared_reference_group_size": 3 }, "geometry": { "type": "Point", "coordinates": [ 73.776295154671317, 19.993022294474979 ] } },
{ "type": "Feature", "properties": { "zone_id": "NV_017", "reference_group_id": "REF_DC351865F18D", "shared_reference_group_size": 3 }, "geometry": { "type": "Point", "coordinates": [ 73.776295154671317, 19.993022294474979 ] } },
{ "type": "Feature", "properties": { "zone_id": "NV_018", "reference_group_id": "REF_07405A21A56A", "shared_reference_group_size": 2 }, "geometry": { "type": "Point", "coordinates": [ 73.757947746841396, 19.952641670795003 ] } },
{ "type": "Feature", "properties": { "zone_id": "NV_019", "reference_group_id": "REF_3DFACF6F5983", "shared_reference_group_size": 1 }, "geometry": { "type": "Point", "coordinates": [ 73.722988392946675, 19.986085882958978 ] } },
{ "type": "Feature", "properties": { "zone_id": "NV_020", "reference_group_id": "REF_B1B7BA343DB8", "shared_reference_group_size": 1 }, "geometry": { "type": "Point", "coordinates": [ 73.728710517375205, 19.972706050848302 ] } },
{ "type": "Feature", "properties": { "zone_id": "NV_021", "reference_group_id": "REF_48A357F5B764", "shared_reference_group_size": 1 }, "geometry": { "type": "Point", "coordinates": [ 73.757947746841396, 19.952641670795003 ] } },
{ "type": "Feature", "properties": { "zone_id": "NV_022", "reference_group_id": "REF_1C3584B53F46", "shared_reference_group_size": 2 }, "geometry": { "type": "Point", "coordinates": [ 73.7862016, 20.0010551 ] } },
{ "type": "Feature", "properties": { "zone_id": "NV_024", "reference_group_id": "REF_D2708FA6DAC4", "shared_reference_group_size": 2 }, "geometry": { "type": "Point", "coordinates": [ 73.78489590197934, 20.006857116758319 ] } },
{ "type": "Feature", "properties": { "zone_id": "NV_025", "reference_group_id": "REF_9AC0E61CE393", "shared_reference_group_size": 1 }, "geometry": { "type": "Point", "coordinates": [ 73.79464560000001, 20.0097998 ] } },
{ "type": "Feature", "properties": { "zone_id": "NV_026", "reference_group_id": "REF_250EBA0262D7", "shared_reference_group_size": 2 }, "geometry": { "type": "Point", "coordinates": [ 73.79464560000001, 20.0097998 ] } },
{ "type": "Feature", "properties": { "zone_id": "NV_027", "reference_group_id": "REF_1C3584B53F46", "shared_reference_group_size": 2 }, "geometry": { "type": "Point", "coordinates": [ 73.7862016, 20.0010551 ] } },
{ "type": "Feature", "properties": { "zone_id": "NV_028", "reference_group_id": "REF_C87F1D5CE50E", "shared_reference_group_size": 1 }, "geometry": { "type": "Point", "coordinates": [ 73.810572500332739, 19.97779878341078 ] } },
{ "type": "Feature", "properties": { "zone_id": "NV_029", "reference_group_id": "REF_EAED496D0988", "shared_reference_group_size": 2 }, "geometry": { "type": "Point", "coordinates": [ 73.783986498053864, 19.987092683266802 ] } },
{ "type": "Feature", "properties": { "zone_id": "NV_030", "reference_group_id": "REF_3678EBA3766C", "shared_reference_group_size": 1 }, "geometry": { "type": "Point", "coordinates": [ 73.795699052153822, 19.990193408981376 ] } },
{ "type": "Feature", "properties": { "zone_id": "NV_031", "reference_group_id": "REF_210392D36DCF", "shared_reference_group_size": 1 }, "geometry": { "type": "Point", "coordinates": [ 73.844097408917776, 19.950880775861478 ] } },
{ "type": "Feature", "properties": { "zone_id": "NV_032", "reference_group_id": "REF_4456EA1C0BBC", "shared_reference_group_size": 2 }, "geometry": { "type": "Point", "coordinates": [ 73.752948799608404, 19.995481850049455 ] } },
{ "type": "Feature", "properties": { "zone_id": "NV_033", "reference_group_id": "REF_14EE923FAEB1", "shared_reference_group_size": 1 }, "geometry": { "type": "Point", "coordinates": [ 73.801665599532996, 19.987604983352849 ] } },
{ "type": "Feature", "properties": { "zone_id": "NV_034", "reference_group_id": "REF_8191CF1C7D34", "shared_reference_group_size": 3 }, "geometry": { "type": "Point", "coordinates": [ 73.800207449377368, 20.02380415006116 ] } },
{ "type": "Feature", "properties": { "zone_id": "NV_035", "reference_group_id": "REF_46009D796182", "shared_reference_group_size": 1 }, "geometry": { "type": "Point", "coordinates": [ 73.818332731797355, 20.044482247781051 ] } },
{ "type": "Feature", "properties": { "zone_id": "NV_037", "reference_group_id": "REF_4456EA1C0BBC", "shared_reference_group_size": 2 }, "geometry": { "type": "Point", "coordinates": [ 73.752948799608404, 19.995481850049455 ] } },
{ "type": "Feature", "properties": { "zone_id": "NV_038", "reference_group_id": "REF_C2EFDE1D491D", "shared_reference_group_size": 1 }, "geometry": { "type": "Point", "coordinates": [ 73.839900627302697, 19.947169545439433 ] } },
{ "type": "Feature", "properties": { "zone_id": "NV_039", "reference_group_id": "REF_B9BA4088C1D1", "shared_reference_group_size": 1 }, "geometry": { "type": "Point", "coordinates": [ 73.840841203024297, 19.948308983599468 ] } },
{ "type": "Feature", "properties": { "zone_id": "NV_040", "reference_group_id": "REF_5B161608A286", "shared_reference_group_size": 1 }, "geometry": { "type": "Point", "coordinates": [ 73.793985698993197, 19.968663083343625 ] } },
{ "type": "Feature", "properties": { "zone_id": "NV_041", "reference_group_id": "REF_FD696AFB323F", "shared_reference_group_size": 1 }, "geometry": { "type": "Point", "coordinates": [ 73.784466595686268, 19.987259352888902 ] } },
{ "type": "Feature", "properties": { "zone_id": "NV_043", "reference_group_id": "REF_DFEF2A47064E", "shared_reference_group_size": 1 }, "geometry": { "type": "Point", "coordinates": [ 73.799106054444024, 19.995865313179124 ] } },
{ "type": "Feature", "properties": { "zone_id": "NV_044", "reference_group_id": "REF_46BF8A27DDF8", "shared_reference_group_size": 1 }, "geometry": { "type": "Point", "coordinates": [ 73.79023629844464, 20.011260783261452 ] } },
{ "type": "Feature", "properties": { "zone_id": "NV_046", "reference_group_id": "REF_504698442D8B", "shared_reference_group_size": 1 }, "geometry": { "type": "Point", "coordinates": [ 73.717414207790782, 20.032345517139341 ] } },
{ "type": "Feature", "properties": { "zone_id": "NV_047", "reference_group_id": "REF_D7FA6B0AAC2A", "shared_reference_group_size": 3 }, "geometry": { "type": "Point", "coordinates": [ 73.809912023835821, 19.982449200166101 ] } },
{ "type": "Feature", "properties": { "zone_id": "NV_049", "reference_group_id": "REF_250EBA0262D7", "shared_reference_group_size": 2 }, "geometry": { "type": "Point", "coordinates": [ 73.79464560000001, 20.0097998 ] } },
{ "type": "Feature", "properties": { "zone_id": "NV_050", "reference_group_id": "REF_F8DF05FE5A4F", "shared_reference_group_size": 1 }, "geometry": { "type": "Point", "coordinates": [ 73.794468901185766, 20.008632416713837 ] } },
{ "type": "Feature", "properties": { "zone_id": "NV_051", "reference_group_id": "REF_E9BA42C14DBE", "shared_reference_group_size": 2 }, "geometry": { "type": "Point", "coordinates": [ 73.795219325799664, 20.006949999869491 ] } },
{ "type": "Feature", "properties": { "zone_id": "NV_053", "reference_group_id": "REF_9EAFB007664F", "shared_reference_group_size": 1 }, "geometry": { "type": "Point", "coordinates": [ 73.943127409656057, 19.985767475900946 ] } },
{ "type": "Feature", "properties": { "zone_id": "NV_054", "reference_group_id": "REF_C5840C0433B1", "shared_reference_group_size": 2 }, "geometry": { "type": "Point", "coordinates": [ 73.720657392719758, 19.991497282938763 ] } },
{ "type": "Feature", "properties": { "zone_id": "NV_055", "reference_group_id": "REF_F0200AB4D0E8", "shared_reference_group_size": 15 }, "geometry": { "type": "Point", "coordinates": [ 73.795011523846114, 20.014653039351131 ] } },
{ "type": "Feature", "properties": { "zone_id": "NV_056", "reference_group_id": "REF_449D9EB5C4DB", "shared_reference_group_size": 1 }, "geometry": { "type": "Point", "coordinates": [ 73.792490201344236, 20.007250616721475 ] } },
{ "type": "Feature", "properties": { "zone_id": "NV_057", "reference_group_id": "REF_1337E5426A4E", "shared_reference_group_size": 1 }, "geometry": { "type": "Point", "coordinates": [ 73.840964921945826, 19.958019725407144 ] } },
{ "type": "Feature", "properties": { "zone_id": "NV_061", "reference_group_id": "REF_FD136D08164F", "shared_reference_group_size": 2 }, "geometry": { "type": "Point", "coordinates": [ 73.749745500219902, 20.00124923647515 ] } },
{ "type": "Feature", "properties": { "zone_id": "NV_062", "reference_group_id": "REF_FD136D08164F", "shared_reference_group_size": 2 }, "geometry": { "type": "Point", "coordinates": [ 73.749745500219902, 20.00124923647515 ] } },
{ "type": "Feature", "properties": { "zone_id": "NV_063", "reference_group_id": "REF_76AC40CE20B2", "shared_reference_group_size": 1 }, "geometry": { "type": "Point", "coordinates": [ 73.841631789664945, 19.9513092209747 ] } },
{ "type": "Feature", "properties": { "zone_id": "NV_064", "reference_group_id": "REF_F750E7717A67", "shared_reference_group_size": 3 }, "geometry": { "type": "Point", "coordinates": [ 73.773236197231455, 19.972996583234469 ] } },
{ "type": "Feature", "properties": { "zone_id": "NV_065", "reference_group_id": "REF_6A21B50C66FB", "shared_reference_group_size": 1 }, "geometry": { "type": "Point", "coordinates": [ 73.825278874798741, 19.968491033908354 ] } },
{ "type": "Feature", "properties": { "zone_id": "NV_066", "reference_group_id": "REF_2F67225F7F5D", "shared_reference_group_size": 1 }, "geometry": { "type": "Point", "coordinates": [ 73.761091096280239, 19.96128158319107 ] } },
{ "type": "Feature", "properties": { "zone_id": "NV_067", "reference_group_id": "REF_BA63A7DF63CB", "shared_reference_group_size": 2 }, "geometry": { "type": "Point", "coordinates": [ 73.7687975, 19.9680698 ] } },
{ "type": "Feature", "properties": { "zone_id": "NV_068", "reference_group_id": "REF_E938E5D3F983", "shared_reference_group_size": 1 }, "geometry": { "type": "Point", "coordinates": [ 73.754503595710176, 19.964568983152866 ] } },
{ "type": "Feature", "properties": { "zone_id": "NV_069", "reference_group_id": "REF_F750E7717A67", "shared_reference_group_size": 3 }, "geometry": { "type": "Point", "coordinates": [ 73.773236197231455, 19.972996583234469 ] } },
{ "type": "Feature", "properties": { "zone_id": "NV_070", "reference_group_id": "REF_00046D6842A1", "shared_reference_group_size": 1 }, "geometry": { "type": "Point", "coordinates": [ 73.75400639562038, 19.973064483137637 ] } },
{ "type": "Feature", "properties": { "zone_id": "NV_071", "reference_group_id": "REF_D7FA6B0AAC2A", "shared_reference_group_size": 3 }, "geometry": { "type": "Point", "coordinates": [ 73.809912023835821, 19.982449200166101 ] } },
{ "type": "Feature", "properties": { "zone_id": "NV_072", "reference_group_id": "REF_639F9B1ACEA8", "shared_reference_group_size": 1 }, "geometry": { "type": "Point", "coordinates": [ 73.7658554, 19.9737165 ] } },
{ "type": "Feature", "properties": { "zone_id": "NV_073", "reference_group_id": "REF_6C11A418798D", "shared_reference_group_size": 1 }, "geometry": { "type": "Point", "coordinates": [ 73.768214996855619, 19.965012783221304 ] } },
{ "type": "Feature", "properties": { "zone_id": "NV_074", "reference_group_id": "REF_6E2E886CFA4A", "shared_reference_group_size": 1 }, "geometry": { "type": "Point", "coordinates": [ 73.751833437716982, 20.00608923002855 ] } },
{ "type": "Feature", "properties": { "zone_id": "NV_075", "reference_group_id": "REF_D2AE3F069677", "shared_reference_group_size": 12 }, "geometry": { "type": "Point", "coordinates": [ 73.791534479381511, 19.980459299870009 ] } },
{ "type": "Feature", "properties": { "zone_id": "NV_077", "reference_group_id": "REF_117E6C6209C4", "shared_reference_group_size": 1 }, "geometry": { "type": "Point", "coordinates": [ 73.793643370202375, 20.033657113880171 ] } },
{ "type": "Feature", "properties": { "zone_id": "NV_078", "reference_group_id": "REF_5B31DC881596", "shared_reference_group_size": 1 }, "geometry": { "type": "Point", "coordinates": [ 73.720881096223891, 19.984643203583296 ] } },
{ "type": "Feature", "properties": { "zone_id": "NV_079", "reference_group_id": "REF_1B40A87C9014", "shared_reference_group_size": 1 }, "geometry": { "type": "Point", "coordinates": [ 73.804849999520201, 20.039010983291362 ] } },
{ "type": "Feature", "properties": { "zone_id": "NV_080", "reference_group_id": "REF_AF09D76A0FE7", "shared_reference_group_size": 1 }, "geometry": { "type": "Point", "coordinates": [ 73.735148123067546, 19.963187380267509 ] } },
{ "type": "Feature", "properties": { "zone_id": "NV_081", "reference_group_id": "REF_1684CF9C799B", "shared_reference_group_size": 1 }, "geometry": { "type": "Point", "coordinates": [ 73.737680467953496, 20.006305344894393 ] } },
{ "type": "Feature", "properties": { "zone_id": "NV_083", "reference_group_id": "REF_77CFC60326A7", "shared_reference_group_size": 1 }, "geometry": { "type": "Point", "coordinates": [ 73.689025900182685, 20.039246100027977 ] } }
]
}
