{
"type": "FeatureCollection",
"name": "transport_deduplicated",
"crs": { "type": "name", "properties": { "name": "urn:ogc:def:crs:OGC:1.3:CRS84" } },
"features": [
{ "type": "Feature", "properties": { "osm_id": "13447638414", "name": "Tapovan Depot", "feature_group": "transport", "feature_type": "bus_station", "geometry_source": "point", "original_geometry_type": "Point", "feature_id": "TR_000001" }, "geometry": { "type": "Point", "coordinates": [ 73.8143867, 20.0082742 ] } },
{ "type": "Feature", "properties": { "osm_id": null, "name": "Nashik Road Railway Station", "feature_group": "transport", "feature_type": "bus_station", "geometry_source": "polygon", "original_geometry_type": "Polygon", "feature_id": "TR_000002" }, "geometry": { "type": "Point", "coordinates": [ 73.841295915928271, 19.9481228 ] } },
{ "type": "Feature", "properties": { "osm_id": null, "name": "Mumbai Naka Mahamarg Bus Stand", "feature_group": "transport", "feature_type": "bus_station", "geometry_source": "polygon", "original_geometry_type": "Polygon", "feature_id": "TR_000003" }, "geometry": { "type": "Point", "coordinates": [ 73.782628029426277, 19.9882137 ] } },
{ "type": "Feature", "properties": { "osm_id": null, "name": "Private Bus Stand", "feature_group": "transport", "feature_type": "bus_station", "geometry_source": "polygon", "original_geometry_type": "Polygon", "feature_id": "TR_000004" }, "geometry": { "type": "Point", "coordinates": [ 73.782630301778511, 19.98957005 ] } },
{ "type": "Feature", "properties": { "osm_id": null, "name": "Satpur Bus Stand", "feature_group": "transport", "feature_type": "bus_station", "geometry_source": "polygon", "original_geometry_type": "Polygon", "feature_id": "TR_000005" }, "geometry": { "type": "Point", "coordinates": [ 73.731923137658228, 19.9912276 ] } },
{ "type": "Feature", "properties": { "osm_id": null, "name": "Thakkar Bazzar Bus Stand", "feature_group": "transport", "feature_type": "bus_station", "geometry_source": "polygon", "original_geometry_type": "Polygon", "feature_id": "TR_000006" }, "geometry": { "type": "Point", "coordinates": [ 73.780746727640832, 19.9982538 ] } },
{ "type": "Feature", "properties": { "osm_id": null, "name": "Mela Bus Stand", "feature_group": "transport", "feature_type": "bus_station", "geometry_source": "polygon", "original_geometry_type": "Polygon", "feature_id": "TR_000007" }, "geometry": { "type": "Point", "coordinates": [ 73.780715369129268, 19.99963585 ] } },
{ "type": "Feature", "properties": { "osm_id": null, "name": null, "feature_group": "transport", "feature_type": "bus_station", "geometry_source": "polygon", "original_geometry_type": "Polygon", "feature_id": "TR_000008" }, "geometry": { "type": "Point", "coordinates": [ 73.817504316841209, 20.0087558 ] } },
{ "type": "Feature", "properties": { "osm_id": null, "name": "Nimani Bus Station", "feature_group": "transport", "feature_type": "bus_station", "geometry_source": "polygon", "original_geometry_type": "Polygon", "feature_id": "TR_000009" }, "geometry": { "type": "Point", "coordinates": [ 73.796841395595919, 20.01176045 ] } },
{ "type": "Feature", "properties": { "osm_id": "13479339756", "name": "Garware", "feature_group": "transport", "feature_type": "bus_stop", "geometry_source": "point", "original_geometry_type": "Point", "feature_id": "TR_000010" }, "geometry": { "type": "Point", "coordinates": [ 73.7443298, 19.9443784 ] } },
{ "type": "Feature", "properties": { "osm_id": "13479414543", "name": null, "feature_group": "transport", "feature_type": "bus_stop", "geometry_source": "point", "original_geometry_type": "Point", "feature_id": "TR_000011" }, "geometry": { "type": "Point", "coordinates": [ 73.7455424, 19.9456528 ] } },
{ "type": "Feature", "properties": { "osm_id": "13482222685", "name": null, "feature_group": "transport", "feature_type": "bus_stop", "geometry_source": "point", "original_geometry_type": "Point", "feature_id": "TR_000012" }, "geometry": { "type": "Point", "coordinates": [ 73.7352168, 19.960648 ] } },
{ "type": "Feature", "properties": { "osm_id": "13546500261", "name": null, "feature_group": "transport", "feature_type": "bus_stop", "geometry_source": "point", "original_geometry_type": "Point", "feature_id": "TR_000013" }, "geometry": { "type": "Point", "coordinates": [ 73.7433879, 19.9616529 ] } },
{ "type": "Feature", "properties": { "osm_id": "13546459165", "name": "Ambad Jalkumbh", "feature_group": "transport", "feature_type": "bus_stop", "geometry_source": "point", "original_geometry_type": "Point", "feature_id": "TR_000014" }, "geometry": { "type": "Point", "coordinates": [ 73.7400055, 19.963124 ] } },
{ "type": "Feature", "properties": { "osm_id": "13481105238", "name": null, "feature_group": "transport", "feature_type": "bus_stop", "geometry_source": "point", "original_geometry_type": "Point", "feature_id": "TR_000015" }, "geometry": { "type": "Point", "coordinates": [ 73.7731562, 19.9729377 ] } },
{ "type": "Feature", "properties": { "osm_id": "13481105243", "name": null, "feature_group": "transport", "feature_type": "bus_stop", "geometry_source": "point", "original_geometry_type": "Point", "feature_id": "TR_000016" }, "geometry": { "type": "Point", "coordinates": [ 73.7772953, 19.9761213 ] } },
{ "type": "Feature", "properties": { "osm_id": "14051285595", "name": "Poornima Bus Stop", "feature_group": "transport", "feature_type": "bus_stop", "geometry_source": "point", "original_geometry_type": "Point", "feature_id": "TR_000017" }, "geometry": { "type": "Point", "coordinates": [ 73.7997644, 19.9888997 ] } },
{ "type": "Feature", "properties": { "osm_id": "3318747597", "name": "Savarkar Nagar", "feature_group": "transport", "feature_type": "bus_stop", "geometry_source": "point", "original_geometry_type": "Point", "feature_id": "TR_000018" }, "geometry": { "type": "Point", "coordinates": [ 73.719149800000011, 19.9886241 ] } },
{ "type": "Feature", "properties": { "osm_id": "3672851564", "name": "Ashoknagar", "feature_group": "transport", "feature_type": "bus_stop", "geometry_source": "point", "original_geometry_type": "Point", "feature_id": "TR_000019" }, "geometry": { "type": "Point", "coordinates": [ 73.7139269, 19.9893241 ] } },
{ "type": "Feature", "properties": { "osm_id": "3318747599", "name": "Satpur Colony", "feature_group": "transport", "feature_type": "bus_stop", "geometry_source": "point", "original_geometry_type": "Point", "feature_id": "TR_000020" }, "geometry": { "type": "Point", "coordinates": [ 73.7241802, 19.9894635 ] } },
{ "type": "Feature", "properties": { "osm_id": "3318747598", "name": "Anandchaya", "feature_group": "transport", "feature_type": "bus_stop", "geometry_source": "point", "original_geometry_type": "Point", "feature_id": "TR_000021" }, "geometry": { "type": "Point", "coordinates": [ 73.7215275, 19.9894786 ] } },
{ "type": "Feature", "properties": { "osm_id": "3318747596", "name": "Ashok Nagar", "feature_group": "transport", "feature_type": "bus_stop", "geometry_source": "point", "original_geometry_type": "Point", "feature_id": "TR_000022" }, "geometry": { "type": "Point", "coordinates": [ 73.7172152, 19.9896197 ] } },
{ "type": "Feature", "properties": { "osm_id": "3318747593", "name": "Ashok Nagar", "feature_group": "transport", "feature_type": "bus_stop", "geometry_source": "point", "original_geometry_type": "Point", "feature_id": "TR_000023" }, "geometry": { "type": "Point", "coordinates": [ 73.712870700000025, 19.9904389 ] } },
{ "type": "Feature", "properties": { "osm_id": "3318747600", "name": "Satpur Colony", "feature_group": "transport", "feature_type": "bus_stop", "geometry_source": "point", "original_geometry_type": "Point", "feature_id": "TR_000024" }, "geometry": { "type": "Point", "coordinates": [ 73.7249769, 19.9906708 ] } },
{ "type": "Feature", "properties": { "osm_id": "3318747602", "name": "Satpur Municipal Corporation", "feature_group": "transport", "feature_type": "bus_stop", "geometry_source": "point", "original_geometry_type": "Point", "feature_id": "TR_000025" }, "geometry": { "type": "Point", "coordinates": [ 73.7369395, 19.9913035 ] } },
{ "type": "Feature", "properties": { "osm_id": "3318747603", "name": "Satpur Police Station", "feature_group": "transport", "feature_type": "bus_stop", "geometry_source": "point", "original_geometry_type": "Point", "feature_id": "TR_000026" }, "geometry": { "type": "Point", "coordinates": [ 73.7427284, 19.9919702 ] } },
{ "type": "Feature", "properties": { "osm_id": "3318747616", "name": "Ujwal Agency Stop", "feature_group": "transport", "feature_type": "bus_stop", "geometry_source": "point", "original_geometry_type": "Point", "feature_id": "TR_000027" }, "geometry": { "type": "Point", "coordinates": [ 73.7454723, 19.9924542 ] } },
{ "type": "Feature", "properties": { "osm_id": "3318747594", "name": "Shramik Nagar", "feature_group": "transport", "feature_type": "bus_stop", "geometry_source": "point", "original_geometry_type": "Point", "feature_id": "TR_000028" }, "geometry": { "type": "Point", "coordinates": [ 73.7115752, 19.9961808 ] } },
{ "type": "Feature", "properties": { "osm_id": "3318747595", "name": "Shivaji Nagar", "feature_group": "transport", "feature_type": "bus_stop", "geometry_source": "point", "original_geometry_type": "Point", "feature_id": "TR_000029" }, "geometry": { "type": "Point", "coordinates": [ 73.7116127, 20.0053123 ] } },
{ "type": "Feature", "properties": { "osm_id": "14051896477", "name": "Dsouza Colony Bus Stop", "feature_group": "transport", "feature_type": "bus_stop", "geometry_source": "point", "original_geometry_type": "Point", "feature_id": "TR_000030" }, "geometry": { "type": "Point", "coordinates": [ 73.755735, 20.008407 ] } },
{ "type": "Feature", "properties": { "osm_id": "4844717823", "name": null, "feature_group": "transport", "feature_type": "bus_stop", "geometry_source": "point", "original_geometry_type": "Point", "feature_id": "TR_000031" }, "geometry": { "type": "Point", "coordinates": [ 73.7964094, 19.9938733 ] } },
{ "type": "Feature", "properties": { "osm_id": "4849868125", "name": null, "feature_group": "transport", "feature_type": "bus_stop", "geometry_source": "point", "original_geometry_type": "Point", "feature_id": "TR_000032" }, "geometry": { "type": "Point", "coordinates": [ 73.7800407, 19.9970658 ] } },
{ "type": "Feature", "properties": { "osm_id": "3318873527", "name": "Shalimar", "feature_group": "transport", "feature_type": "bus_stop", "geometry_source": "point", "original_geometry_type": "Point", "feature_id": "TR_000033" }, "geometry": { "type": "Point", "coordinates": [ 73.7868218, 20.00053 ] } },
{ "type": "Feature", "properties": { "osm_id": "13475353248", "name": "Raviwar Karanja", "feature_group": "transport", "feature_type": "bus_stop", "geometry_source": "point", "original_geometry_type": "Point", "feature_id": "TR_000034" }, "geometry": { "type": "Point", "coordinates": [ 73.78809050000001, 20.0056652 ] } },
{ "type": "Feature", "properties": { "osm_id": "13475353268", "name": "Panchavati Karanja", "feature_group": "transport", "feature_type": "bus_stop", "geometry_source": "point", "original_geometry_type": "Point", "feature_id": "TR_000035" }, "geometry": { "type": "Point", "coordinates": [ 73.79464560000001, 20.0097998 ] } },
{ "type": "Feature", "properties": { "osm_id": "4720589191", "name": null, "feature_group": "transport", "feature_type": "bus_stop", "geometry_source": "point", "original_geometry_type": "Point", "feature_id": "TR_000036" }, "geometry": { "type": "Point", "coordinates": [ 73.783819, 20.0116052 ] } },
{ "type": "Feature", "properties": { "osm_id": "13586356560", "name": "nimani bus stop", "feature_group": "transport", "feature_type": "bus_stop", "geometry_source": "point", "original_geometry_type": "Point", "feature_id": "TR_000037" }, "geometry": { "type": "Point", "coordinates": [ 73.7967757, 20.0118264 ] } },
{ "type": "Feature", "properties": { "osm_id": "794350354", "name": "Nashik Road", "feature_group": "transport", "feature_type": "railway_station", "geometry_source": "point", "original_geometry_type": "Point", "feature_id": "TR_000038" }, "geometry": { "type": "Point", "coordinates": [ 73.8420837, 19.9480582 ] } },
{ "type": "Feature", "properties": { "osm_id": "13481140125", "name": null, "feature_group": "transport", "feature_type": "transit_platform", "geometry_source": "point", "original_geometry_type": "Point", "feature_id": "TR_000039" }, "geometry": { "type": "Point", "coordinates": [ 73.7499524, 19.9488 ] } },
{ "type": "Feature", "properties": { "osm_id": "13481140151", "name": null, "feature_group": "transport", "feature_type": "transit_platform", "geometry_source": "point", "original_geometry_type": "Point", "feature_id": "TR_000040" }, "geometry": { "type": "Point", "coordinates": [ 73.7546074, 19.9526579 ] } },
{ "type": "Feature", "properties": { "osm_id": "13481140123", "name": null, "feature_group": "transport", "feature_type": "transit_platform", "geometry_source": "point", "original_geometry_type": "Point", "feature_id": "TR_000041" }, "geometry": { "type": "Point", "coordinates": [ 73.8273315, 19.9617624 ] } },
{ "type": "Feature", "properties": { "osm_id": "13481140114", "name": "Nehru Nagar", "feature_group": "transport", "feature_type": "transit_platform", "geometry_source": "point", "original_geometry_type": "Point", "feature_id": "TR_000042" }, "geometry": { "type": "Point", "coordinates": [ 73.823586, 19.964619 ] } },
{ "type": "Feature", "properties": { "osm_id": "13481140142", "name": null, "feature_group": "transport", "feature_type": "transit_platform", "geometry_source": "point", "original_geometry_type": "Point", "feature_id": "TR_000043" }, "geometry": { "type": "Point", "coordinates": [ 73.8219645, 19.9662478 ] } },
{ "type": "Feature", "properties": { "osm_id": "13481140109", "name": null, "feature_group": "transport", "feature_type": "transit_platform", "geometry_source": "point", "original_geometry_type": "Point", "feature_id": "TR_000044" }, "geometry": { "type": "Point", "coordinates": [ 73.81313560000001, 19.9737488 ] } },
{ "type": "Feature", "properties": { "osm_id": "13481140121", "name": "Pathardi Phata", "feature_group": "transport", "feature_type": "transit_platform", "geometry_source": "point", "original_geometry_type": "Point", "feature_id": "TR_000045" }, "geometry": { "type": "Point", "coordinates": [ 73.7579834, 19.9561878 ] } },
{ "type": "Feature", "properties": { "osm_id": "13481126400", "name": null, "feature_group": "transport", "feature_type": "transit_platform", "geometry_source": "point", "original_geometry_type": "Point", "feature_id": "TR_000046" }, "geometry": { "type": "Point", "coordinates": [ 73.7643742, 19.9626505 ] } },
{ "type": "Feature", "properties": { "osm_id": "13481140150", "name": null, "feature_group": "transport", "feature_type": "transit_platform", "geometry_source": "point", "original_geometry_type": "Point", "feature_id": "TR_000047" }, "geometry": { "type": "Point", "coordinates": [ 73.7670488, 19.9657791 ] } },
{ "type": "Feature", "properties": { "osm_id": "13481140155", "name": "State Bank", "feature_group": "transport", "feature_type": "transit_platform", "geometry_source": "point", "original_geometry_type": "Point", "feature_id": "TR_000048" }, "geometry": { "type": "Point", "coordinates": [ 73.7687975, 19.9680698 ] } },
{ "type": "Feature", "properties": { "osm_id": "13481140135", "name": "Lekhanagar", "feature_group": "transport", "feature_type": "transit_platform", "geometry_source": "point", "original_geometry_type": "Point", "feature_id": "TR_000049" }, "geometry": { "type": "Point", "coordinates": [ 73.7732363, 19.9729833 ] } },
{ "type": "Feature", "properties": { "osm_id": "13481140143", "name": null, "feature_group": "transport", "feature_type": "transit_platform", "geometry_source": "point", "original_geometry_type": "Point", "feature_id": "TR_000050" }, "geometry": { "type": "Point", "coordinates": [ 73.7753247, 19.9739217 ] } },
{ "type": "Feature", "properties": { "osm_id": "13481140130", "name": null, "feature_group": "transport", "feature_type": "transit_platform", "geometry_source": "point", "original_geometry_type": "Point", "feature_id": "TR_000051" }, "geometry": { "type": "Point", "coordinates": [ 73.777232500000011, 19.9760939 ] } },
{ "type": "Feature", "properties": { "osm_id": "13481140111", "name": "Govind Nagar", "feature_group": "transport", "feature_type": "transit_platform", "geometry_source": "point", "original_geometry_type": "Point", "feature_id": "TR_000052" }, "geometry": { "type": "Point", "coordinates": [ 73.7796964, 19.9789859 ] } },
{ "type": "Feature", "properties": { "osm_id": "13481140116", "name": null, "feature_group": "transport", "feature_type": "transit_platform", "geometry_source": "point", "original_geometry_type": "Point", "feature_id": "TR_000053" }, "geometry": { "type": "Point", "coordinates": [ 73.8061394, 19.9807291 ] } },
{ "type": "Feature", "properties": { "osm_id": "13481140127", "name": null, "feature_group": "transport", "feature_type": "transit_platform", "geometry_source": "point", "original_geometry_type": "Point", "feature_id": "TR_000054" }, "geometry": { "type": "Point", "coordinates": [ 73.8063521, 19.9809452 ] } },
{ "type": "Feature", "properties": { "osm_id": "13481140136", "name": null, "feature_group": "transport", "feature_type": "transit_platform", "geometry_source": "point", "original_geometry_type": "Point", "feature_id": "TR_000055" }, "geometry": { "type": "Point", "coordinates": [ 73.7829777, 19.9835958 ] } },
{ "type": "Feature", "properties": { "osm_id": "13481140131", "name": null, "feature_group": "transport", "feature_type": "transit_platform", "geometry_source": "point", "original_geometry_type": "Point", "feature_id": "TR_000056" }, "geometry": { "type": "Point", "coordinates": [ 73.80251220000001, 19.9847775 ] } },
{ "type": "Feature", "properties": { "osm_id": "13481140124", "name": null, "feature_group": "transport", "feature_type": "transit_platform", "geometry_source": "point", "original_geometry_type": "Point", "feature_id": "TR_000057" }, "geometry": { "type": "Point", "coordinates": [ 73.7844366, 19.9863682 ] } },
{ "type": "Feature", "properties": { "osm_id": "13481140112", "name": null, "feature_group": "transport", "feature_type": "transit_platform", "geometry_source": "point", "original_geometry_type": "Point", "feature_id": "TR_000058" }, "geometry": { "type": "Point", "coordinates": [ 73.793386500000011, 19.9919293 ] } },
{ "type": "Feature", "properties": { "osm_id": "13481140115", "name": "Dwarka", "feature_group": "transport", "feature_type": "transit_platform", "geometry_source": "point", "original_geometry_type": "Point", "feature_id": "TR_000059" }, "geometry": { "type": "Point", "coordinates": [ 73.7971822, 19.9937167 ] } },
{ "type": "Feature", "properties": { "osm_id": "7554999638", "name": "Nashik Road", "feature_group": "transport", "feature_type": "transit_stop_position", "geometry_source": "point", "original_geometry_type": "Point", "feature_id": "TR_000060" }, "geometry": { "type": "Point", "coordinates": [ 73.8425378, 19.9479489 ] } },
{ "type": "Feature", "properties": { "osm_id": "7554999641", "name": "Nashik Road", "feature_group": "transport", "feature_type": "transit_stop_position", "geometry_source": "point", "original_geometry_type": "Point", "feature_id": "TR_000061" }, "geometry": { "type": "Point", "coordinates": [ 73.8422428, 19.9480134 ] } }
]
}
